ONEWEB-0683             
1 56719U 23068K   25230.65147101 -.00000064  00000+0 -20308-3 0  9991
2 56719  87.9077 319.5291 0001852 107.9915 252.1417 13.15547447110348
ONEWEB-0684             
1 56720U 23068L   25230.65939154 -.00000125  00000+0 -36479-3 0  9994
2 56720  87.9058 319.5310 0001537  52.0442 308.0827 13.15547243110177
ONEWEB-0686             
1 56721U 23068M   25230.54774573  .00000043  00000+0  78613-4 0  9999
2 56721  87.9017 289.1288 0001705 100.3572 259.7751 13.16596860111895
ONEWEB-0694             
1 56722U 23068N   25230.59054669 -.00000039  00000+0 -13460-3 0  9997
2 56722  87.9029 289.0454 0001909 108.8497 251.2841 13.16593401111950
ONEWEB-0696             
1 56723U 23068P   25230.61661164  .00000106  00000+0  24777-3 0  9991
2 56723  87.9079 319.5890 0001915  90.2490 269.8860 13.15547971110284
ONEWEB-0703             
1 56724U 23068Q   25230.55005685  .00000211  00000+0  52630-3 0  9991
2 56724  87.9063 319.5892 0002651  77.3740 282.7686 13.15547342110161
ONEWEB-0721             
1 56725U 23068R   25230.57599956  .00000144  00000+0  31122-3 0  9991
2 56725  86.6855 181.9658 0002009  79.3400 280.7959 13.22443177117943
ONEWEB-0015             
1 61594U 24188A   25230.86906622  .00000218  00000+0  58007-3 0  9992
2 61594  87.8792  81.3491 0002228  95.9139 264.2243 13.11418330 42918
